<?xml version="1.0" encoding="UTF-8"?>
<ndm xmlns:xsi="http://www.w3.org/2001/XMLSchema-instance" xsi:noNamespaceSchemaLocation="https://sanaregistry.org/r/ndmxml_unqualified/ndmxml-2.0.0-master-2.0.xsd">
<omm id="CCSDS_OMM_VERS" version="2.0">
<header><CREATION_DATE/><ORIGINATOR/></header><body><segment><metadata><OBJECT_NAME>IRIDIUM 26</OBJECT_NAME><OBJECT_ID>1997-043A</OBJECT_ID><CENTER_NAME>EARTH</CENTER_NAME><REF_FRAME>TEME</REF_FRAME><TIME_SYSTEM>UTC</TIME_SYSTEM><MEAN_ELEMENT_THEORY>SGP4</MEAN_ELEMENT_THEORY></metadata><data><meanElements><EPOCH>2026-01-27T12:09:47.354976</EPOCH><MEAN_MOTION>14.37375000</MEAN_MOTION><ECCENTRICITY>.00023922</ECCENTRICITY><INCLINATION>86.3957</INCLINATION><RA_OF_ASC_NODE>16.3175</RA_OF_ASC_NODE><ARG_OF_PERICENTER>85.6273</ARG_OF_PERICENTER><MEAN_ANOMALY>274.5197</MEAN_ANOMALY></meanElements><tleParameters><EPHEMERIS_TYPE>0</EPHEMERIS_TYPE><CLASSIFICATION_TYPE>U</CLASSIFICATION_TYPE><NORAD_CAT_ID>24903</NORAD_CAT_ID><ELEMENT_SET_NO>999</ELEMENT_SET_NO><REV_AT_EPOCH>48896</REV_AT_EPOCH><BSTAR>.25021419E-3</BSTAR><MEAN_MOTION_DOT>.766E-5</MEAN_MOTION_DOT><MEAN_MOTION_DDOT>0</MEAN_MOTION_DDOT></tleParameters></data></segment></body></omm>
<omm id="CCSDS_OMM_VERS" version="2.0">
<header><CREATION_DATE/><ORIGINATOR/></header><body><segment><metadata><OBJECT_NAME>IRIDIUM 22</OBJECT_NAME><OBJECT_ID>1997-043E</OBJECT_ID><CENTER_NAME>EARTH</CENTER_NAME><REF_FRAME>TEME</REF_FRAME><TIME_SYSTEM>UTC</TIME_SYSTEM><MEAN_ELEMENT_THEORY>SGP4</MEAN_ELEMENT_THEORY></metadata><data><meanElements><EPOCH>2026-01-27T11:37:21.279648</EPOCH><MEAN_MOTION>14.36162677</MEAN_MOTION><ECCENTRICITY>.00021746</ECCENTRICITY><INCLINATION>86.3956</INCLINATION><RA_OF_ASC_NODE>20.0590</RA_OF_ASC_NODE><ARG_OF_PERICENTER>85.3742</ARG_OF_PERICENTER><MEAN_ANOMALY>274.7704</MEAN_ANOMALY></meanElements><tleParameters><EPHEMERIS_TYPE>0</EPHEMERIS_TYPE><CLASSIFICATION_TYPE>U</CLASSIFICATION_TYPE><NORAD_CAT_ID>24907</NORAD_CAT_ID><ELEMENT_SET_NO>999</ELEMENT_SET_NO><REV_AT_EPOCH>48896</REV_AT_EPOCH><BSTAR>.2246962E-3</BSTAR><MEAN_MOTION_DOT>.674E-5</MEAN_MOTION_DOT><MEAN_MOTION_DDOT>0</MEAN_MOTION_DDOT></tleParameters></data></segment></body></omm>
<omm id="CCSDS_OMM_VERS" version="2.0">
<header><CREATION_DATE/><ORIGINATOR/></header><body><segment><metadata><OBJECT_NAME>DUMMY MASS 1</OBJECT_NAME><OBJECT_ID>1997-048A</OBJECT_ID><CENTER_NAME>EARTH</CENTER_NAME><REF_FRAME>TEME</REF_FRAME><TIME_SYSTEM>UTC</TIME_SYSTEM><MEAN_ELEMENT_THEORY>SGP4</MEAN_ELEMENT_THEORY></metadata><data><meanElements><EPOCH>2026-01-27T11:48:39.588768</EPOCH><MEAN_MOTION>14.87230338</MEAN_MOTION><ECCENTRICITY>.00089668</ECCENTRICITY><INCLINATION>86.3322</INCLINATION><RA_OF_ASC_NODE>31.5208</RA_OF_ASC_NODE><ARG_OF_PERICENTER>75.9036</ARG_OF_PERICENTER><MEAN_ANOMALY>284.3186</MEAN_ANOMALY></meanElements><tleParameters><EPHEMERIS_TYPE>0</EPHEMERIS_TYPE><CLASSIFICATION_TYPE>U</CLASSIFICATION_TYPE><NORAD_CAT_ID>24925</NORAD_CAT_ID><ELEMENT_SET_NO>999</ELEMENT_SET_NO><REV_AT_EPOCH>53846</REV_AT_EPOCH><BSTAR>.80795422E-4</BSTAR><MEAN_MOTION_DOT>.756E-5</MEAN_MOTION_DOT><MEAN_MOTION_DDOT>0</MEAN_MOTION_DDOT></tleParameters></data></segment></body></omm>
<omm id="CCSDS_OMM_VERS" version="2.0">
<header><CREATION_DATE/><ORIGINATOR/></header><body><segment><metadata><OBJECT_NAME>DUMMY MASS 2</OBJECT_NAME><OBJECT_ID>1997-048B</OBJECT_ID><CENTER_NAME>EARTH</CENTER_NAME><REF_FRAME>TEME</REF_FRAME><TIME_SYSTEM>UTC</TIME_SYSTEM><MEAN_ELEMENT_THEORY>SGP4</MEAN_ELEMENT_THEORY></metadata><data><meanElements><EPOCH>2026-01-27T11:48:09.477504</EPOCH><MEAN_MOTION>14.86980437</MEAN_MOTION><ECCENTRICITY>.00098038</ECCENTRICITY><INCLINATION>86.3320</INCLINATION><RA_OF_ASC_NODE>33.1701</RA_OF_ASC_NODE><ARG_OF_PERICENTER>84.6996</ARG_OF_PERICENTER><MEAN_ANOMALY>275.5347</MEAN_ANOMALY></meanElements><tleParameters><EPHEMERIS_TYPE>0</EPHEMERIS_TYPE><CLASSIFICATION_TYPE>U</CLASSIFICATION_TYPE><NORAD_CAT_ID>24926</NORAD_CAT_ID><ELEMENT_SET_NO>999</ELEMENT_SET_NO><REV_AT_EPOCH>53823</REV_AT_EPOCH><BSTAR>.79523327E-4</BSTAR><MEAN_MOTION_DOT>.74E-5</MEAN_MOTION_DOT><MEAN_MOTION_DDOT>0</MEAN_MOTION_DDOT></tleParameters></data></segment></body></omm>
<omm id="CCSDS_OMM_VERS" version="2.0">
<header><CREATION_DATE/><ORIGINATOR/></header><body><segment><metadata><OBJECT_NAME>IRIDIUM 29</OBJECT_NAME><OBJECT_ID>1997-051A</OBJECT_ID><CENTER_NAME>EARTH</CENTER_NAME><REF_FRAME>TEME</REF_FRAME><TIME_SYSTEM>UTC</TIME_SYSTEM><MEAN_ELEMENT_THEORY>SGP4</MEAN_ELEMENT_THEORY></metadata><data><meanElements><EPOCH>2026-01-27T11:52:28.229088</EPOCH><MEAN_MOTION>14.36706420</MEAN_MOTION><ECCENTRICITY>.00020312</ECCENTRICITY><INCLINATION>86.3916</INCLINATION><RA_OF_ASC_NODE>49.7193</RA_OF_ASC_NODE><ARG_OF_PERICENTER>90.6464</ARG_OF_PERICENTER><MEAN_ANOMALY>269.4966</MEAN_ANOMALY></meanElements><tleParameters><EPHEMERIS_TYPE>0</EPHEMERIS_TYPE><CLASSIFICATION_TYPE>U</CLASSIFICATION_TYPE><NORAD_CAT_ID>24944</NORAD_CAT_ID><ELEMENT_SET_NO>999</ELEMENT_SET_NO><REV_AT_EPOCH>48547</REV_AT_EPOCH><BSTAR>.21199778E-3</BSTAR><MEAN_MOTION_DOT>.644E-5</MEAN_MOTION_DOT><MEAN_MOTION_DDOT>0</MEAN_MOTION_DDOT></tleParameters></data></segment></body></omm>
<omm id="CCSDS_OMM_VERS" version="2.0">
<header><CREATION_DATE/><ORIGINATOR/></header><body><segment><metadata><OBJECT_NAME>IRIDIUM 33</OBJECT_NAME><OBJECT_ID>1997-051C</OBJECT_ID><CENTER_NAME>EARTH</CENTER_NAME><REF_FRAME>TEME</REF_FRAME><TIME_SYSTEM>UTC</TIME_SYSTEM><MEAN_ELEMENT_THEORY>SGP4</MEAN_ELEMENT_THEORY></metadata><data><meanElements><EPOCH>2026-01-27T12:25:30.476640</EPOCH><MEAN_MOTION>14.35074280</MEAN_MOTION><ECCENTRICITY>.00099037</ECCENTRICITY><INCLINATION>86.3831</INCLINATION><RA_OF_ASC_NODE>48.9933</RA_OF_ASC_NODE><ARG_OF_PERICENTER>71.2092</ARG_OF_PERICENTER><MEAN_ANOMALY>289.0178</MEAN_ANOMALY></meanElements><tleParameters><EPHEMERIS_TYPE>0</EPHEMERIS_TYPE><CLASSIFICATION_TYPE>U</CLASSIFICATION_TYPE><NORAD_CAT_ID>24946</NORAD_CAT_ID><ELEMENT_SET_NO>999</ELEMENT_SET_NO><REV_AT_EPOCH>48491</REV_AT_EPOCH><BSTAR>.16531242E-3</BSTAR><MEAN_MOTION_DOT>.491E-5</MEAN_MOTION_DOT><MEAN_MOTION_DDOT>0</MEAN_MOTION_DDOT></tleParameters></data></segment></body></omm>
<omm id="CCSDS_OMM_VERS" version="2.0">
<header><CREATION_DATE/><ORIGINATOR/></header><body><segment><metadata><OBJECT_NAME>IRIDIUM 28</OBJECT_NAME><OBJECT_ID>1997-051E</OBJECT_ID><CENTER_NAME>EARTH</CENTER_NAME><REF_FRAME>TEME</REF_FRAME><TIME_SYSTEM>UTC</TIME_SYSTEM><MEAN_ELEMENT_THEORY>SGP4</MEAN_ELEMENT_THEORY></metadata><data><meanElements><EPOCH>2026-01-27T11:11:33.169632</EPOCH><MEAN_MOTION>14.37606823</MEAN_MOTION><ECCENTRICITY>.00027478</ECCENTRICITY><INCLINATION>86.3923</INCLINATION><RA_OF_ASC_NODE>47.1192</RA_OF_ASC_NODE><ARG_OF_PERICENTER>85.6170</ARG_OF_PERICENTER><MEAN_ANOMALY>274.5342</MEAN_ANOMALY></meanElements><tleParameters><EPHEMERIS_TYPE>0</EPHEMERIS_TYPE><CLASSIFICATION_TYPE>U</CLASSIFICATION_TYPE><NORAD_CAT_ID>24948</NORAD_CAT_ID><ELEMENT_SET_NO>999</ELEMENT_SET_NO><REV_AT_EPOCH>48606</REV_AT_EPOCH><BSTAR>.20561686E-3</BSTAR><MEAN_MOTION_DOT>.636E-5</MEAN_MOTION_DOT><MEAN_MOTION_DDOT>0</MEAN_MOTION_DDOT></tleParameters></data></segment></body></omm>
<omm id="CCSDS_OMM_VERS" version="2.0">
<header><CREATION_DATE/><ORIGINATOR/></header><body><segment><metadata><OBJECT_NAME>IRIDIUM 36</OBJECT_NAME><OBJECT_ID>1997-056C</OBJECT_ID><CENTER_NAME>EARTH</CENTER_NAME><REF_FRAME>TEME</REF_FRAME><TIME_SYSTEM>UTC</TIME_SYSTEM><MEAN_ELEMENT_THEORY>SGP4</MEAN_ELEMENT_THEORY></metadata><data><meanElements><EPOCH>2026-01-27T14:29:02.912352</EPOCH><MEAN_MOTION>14.37834588</MEAN_MOTION><ECCENTRICITY>.00023444</ECCENTRICITY><INCLINATION>86.3927</INCLINATION><RA_OF_ASC_NODE>78.6933</RA_OF_ASC_NODE><ARG_OF_PERICENTER>86.7393</ARG_OF_PERICENTER><MEAN_ANOMALY>273.4073</MEAN_ANOMALY></meanElements><tleParameters><EPHEMERIS_TYPE>0</EPHEMERIS_TYPE><CLASSIFICATION_TYPE>U</CLASSIFICATION_TYPE><NORAD_CAT_ID>24967</NORAD_CAT_ID><ELEMENT_SET_NO>999</ELEMENT_SET_NO><REV_AT_EPOCH>48446</REV_AT_EPOCH><BSTAR>.20131956E-3</BSTAR><MEAN_MOTION_DOT>.626E-5</MEAN_MOTION_DOT><MEAN_MOTION_DDOT>0</MEAN_MOTION_DDOT></tleParameters></data></segment></body></omm>

</ndm>
